O3B MPOWER F1           
1 54755U 22174A   23345.55334891 -.00000007  00000+0  00000+0 0  9993
2 54755   0.0555  16.8290 0005862 257.3272 280.4086  5.00118405 19404
